     2              NAVIGATION DATA                         RINEX VERSION / TYPE
CCRINEXN V1.6.0 UX  CDDIS               29-JAN-17 23:50     PGM / RUN BY / DATE 
IGS BROADCAST EPHEMERIS FILE                                COMMENT             
    0.8382D-08 -0.7451D-08 -0.5960D-07  0.5960D-07          ION ALPHA           
    0.8806D+05 -0.3277D+05 -0.1966D+06  0.1966D+06          ION BETA            
    0.000000000000D+00 0.000000000000D+00   319488     1934 DELTA-UTC: A0,A1,T,W
    18                                                      LEAP SECONDS        
                                                            END OF HEADER       
31 17  1 29  8  0  0.0 0.222275499254D-03-0.227373675443D-11 0.000000000000D+00
    0.410000000000D+02-0.186250000000D+02 0.418267422517D-08 0.157352794302D+01
   -0.787898898125D-06 0.856363528874D-02 0.102631747723D-04 0.515364035606D+04
    0.288000000000D+05 0.484287738800D-07 0.278370780522D+01 0.117346644402D-06
    0.968612594374D+00 0.183781250000D+03-0.296969394516D+00-0.773853662683D-08
   -0.671099382554D-09 0.100000000000D+01 0.193400000000D+04 0.000000000000D+00
    0.200000000000D+01 0.000000000000D+00-0.135041773319D-07 0.410000000000D+02
    0.216000000000D+05 0.400000000000D+01 0.000000000000D+00 0.000000000000D+00
32 17  1 29  8  0  0.0-0.299878884107D-03-0.143245415529D-10 0.000000000000D+00
    0.770000000000D+02 0.103125000000D+02 0.506306803996D-08-0.843722427991D+00
    0.467523932457D-06 0.704405363649D-03 0.466778874397D-05 0.515367687035D+04
    0.288000000000D+05 0.100582838059D-06 0.169722171598D+01-0.279396772385D-07
    0.957959544460D+00 0.291406250000D+03-0.280490259015D+01-0.833106130786D-08
    0.282154610015D-10 0.100000000000D+01 0.193400000000D+04 0.000000000000D+00
    0.290000000000D+01 0.000000000000D+00 0.465661287308D-09 0.770000000000D+02
    0.216000000000D+05 0.400000000000D+01 0.000000000000D+00 0.000000000000D+00
 1 17  1 29  9 59 44.0 0.479985028505D-04 0.909494701773D-12 0.000000000000D+00
    0.500000000000D+01-0.137250000000D+03 0.438303971405D-08-0.283587020327D+01
   -0.710971653462D-05 0.616312166676D-02 0.820495188236D-05 0.515369848251D+04
    0.359840000000D+05-0.484287738800D-07-0.384504876697D+00-0.856816768646D-07
    0.966764264675D+00 0.223781250000D+03 0.547553913830D+00-0.799068998717D-08
   -0.346800159904D-09 0.100000000000D+01 0.193400000000D+04 0.000000000000D+00
    0.200000000000D+01 0.000000000000D+00 0.512227416039D-08 0.500000000000D+01
    0.288000000000D+05 0.400000000000D+01 0.000000000000D+00 0.000000000000D+00
11 17  1 29  9 59 44.0-0.667902640998D-03-0.909494701773D-12 0.000000000000D+00
    0.000000000000D+00-0.118906250000D+03 0.615954228395D-08 0.285918617114D+01
   -0.614486634731D-05 0.166403927142D-01 0.220164656639D-05 0.515369765854D+04
    0.359840000000D+05 0.258907675743D-06-0.778717415906D+00-0.447034835815D-07
    0.899557278537D+00 0.302468750000D+03 0.161580528366D+01-0.884215402549D-08
   -0.364300888880D-09 0.100000000000D+01 0.193400000000D+04 0.000000000000D+00
    0.200000000000D+01 0.000000000000D+00-0.121071934700D-07 0.000000000000D+00
    0.339000000000D+05 0.400000000000D+01 0.000000000000D+00 0.000000000000D+00
12 17  1 29  9 59 44.0 0.388597138226D-03-0.341060513165D-12 0.000000000000D+00
    0.800000000000D+01 0.111687500000D+03 0.356514850274D-08 0.223494778712D+01
    0.580213963985D-05 0.634758558590D-02 0.979937613010D-05 0.515359887505D+04
    0.359840000000D+05-0.968575477600D-07-0.242897586130D+01-0.121071934700D-06
    0.989899396849D+00 0.204687500000D+03 0.785864503645D+00-0.759817363729D-08
    0.325727853587D-09 0.100000000000D+01 0.193400000000D+04 0.000000000000D+00
    0.200000000000D+01 0.000000000000D+00-0.121071934700D-07 0.800000000000D+01
    0.288000000000D+05 0.400000000000D+01 0.000000000000D+00 0.000000000000D+00
21 17  1 29  9 59 44.0-0.523574184626D-03 0.147792889038D-11 0.000000000000D+00
    0.600000000000D+01-0.136187500000D+03 0.493056252058D-08 0.171116434786D+01
   -0.752508640289D-05 0.237964998232D-01 0.712089240551D-05 0.515375724793D+04
    0.359840000000D+05 0.502914190292D-07-0.425110596431D+00-0.614672899246D-06
    0.938931140788D+00 0.236000000000D+03-0.171776197820D+01-0.826820154664D-08
   -0.279654505875D-09 0.100000000000D+01 0.193400000000D+04 0.000000000000D+00
    0.200000000000D+01 0.000000000000D+00-0.977888703346D-08 0.600000000000D+01
    0.339180000000D+05 0.400000000000D+01 0.000000000000D+00 0.000000000000D+00
27 17  1 29  9 59 44.0 0.201304908842D-03 0.579802872380D-11 0.000000000000D+00
    0.230000000000D+02 0.183437500000D+02 0.469519557374D-08-0.606669083140D+00
    0.985339283943D-06 0.426642724778D-02 0.105798244476D-05 0.515365518570D+04
    0.359840000000D+05 0.745058059692D-07-0.144240209857D+01-0.335276126862D-07
    0.973481801630D+00 0.365687500000D+03 0.279402153421D+00-0.852606943073D-08
    0.140720147273D-09 0.100000000000D+01 0.193400000000D+04 0.000000000000D+00
    0.200000000000D+01 0.000000000000D+00 0.186264514923D-08 0.230000000000D+02
    0.343380000000D+05 0.400000000000D+01 0.000000000000D+00 0.000000000000D+00
30 17  1 29  9 59 44.0 0.160560943186D-03 0.113686837722D-12 0.000000000000D+00
    0.700000000000D+01-0.301562500000D+02 0.470805325217D-08 0.282965200561D+01
   -0.155344605446D-05 0.239133799914D-02 0.102017074823D-04 0.515372025108D+04
    0.359840000000D+05-0.186264514923D-07 0.281384564390D+01-0.149011611938D-07
    0.949602905813D+00 0.176906250000D+03 0.308578497967D+01-0.805426406386D-08
   -0.617168564691D-09 0.100000000000D+01 0.193400000000D+04 0.000000000000D+00
    0.200000000000D+01 0.000000000000D+00 0.372529029846D-08 0.700000000000D+01
    0.320400000000D+05 0.400000000000D+01 0.000000000000D+00 0.000000000000D+00
32 17  1 29  9 59 44.0-0.299983192235D-03-0.143245415529D-10 0.000000000000D+00
    0.100000000000D+02 0.107812500000D+02 0.512414201251D-08 0.204580585054D+00
    0.506639480591D-06 0.705427723005D-03 0.411272048950D-05 0.515367891121D+04
    0.359840000000D+05 0.149011611938D-07 0.169716153446D+01 0.372529029846D-08
    0.957959316245D+00 0.298937500000D+03-0.280535681597D+01-0.841999358367D-08
    0.210723063176D-10 0.100000000000D+01 0.193400000000D+04 0.000000000000D+00
    0.200000000000D+01 0.000000000000D+00 0.465661287308D-09 0.100000000000D+02
    0.322980000000D+05 0.400000000000D+01 0.000000000000D+00 0.000000000000D+00
 2 17  1 29 10  0  0.0 0.485301017761D-03-0.670752342558D-11 0.000000000000D+00
    0.620000000000D+02-0.140156250000D+03 0.481341478376D-08-0.241266936593D+01
   -0.715814530849D-05 0.165613724384D-01 0.644661486149D-05 0.515372909737D+04
    0.360000000000D+05 0.249594449997D-06-0.435327333954D+00-0.558793544769D-07
    0.945610036225D+00 0.242062500000D+03-0.203199442193D+01-0.808247952486D-08
   -0.175721605225D-09 0.100000000000D+01 0.193400000000D+04 0.000000000000D+00
    0.200000000000D+01 0.000000000000D+00-0.204890966415D-07 0.620000000000D+02
    0.288000000000D+05 0.400000000000D+01 0.000000000000D+00 0.000000000000D+00
 3 17  1 29 10  0  0.0-0.106818042696D-03-0.682121026330D-12 0.000000000000D+00
    0.420000000000D+02 0.503125000000D+01 0.436696761602D-08 0.241550120961D+01
    0.210478901863D-06 0.467747217044D-03 0.121351331472D-04 0.515381523895D+04
    0.360000000000D+05-0.130385160446D-07 0.657054366346D+00 0.353902578354D-07
    0.959800006586D+00 0.141968750000D+03 0.532157745569D+00-0.782746890264D-08
    0.474662628747D-09 0.100000000000D+01 0.193400000000D+04 0.000000000000D+00
    0.200000000000D+01 0.000000000000D+00 0.186264514923D-08 0.420000000000D+02
    0.288000000000D+05 0.400000000000D+01 0.000000000000D+00 0.000000000000D+00
 4 17  1 29 10  0  0.0-0.260454602539D-03 0.227373675443D-12 0.000000000000D+00
    0.450000000000D+02 0.115343750000D+03 0.509914097112D-08 0.452874658882D+00
    0.602006912231D-05 0.877369521186D-02 0.969879329205D-05 0.515372637367D+04
    0.360000000000D+05-0.949949026108D-07-0.246007297047D+01 0.124797224999D-06
    0.982733251676D+00 0.205281250000D+03 0.871936519153D+00-0.784139805427D-08
    0.213580325049D-09 0.100000000000D+01 0.193400000000D+04 0.000000000000D+00
    0.200000000000D+01 0.630000000000D+02-0.195577740669D-07 0.450000000000D+02
    0.288000000000D+05 0.000000000000D+00 0.000000000000D+00 0.000000000000D+00
 5 17  1 29 10  0  0.0-0.635851174593D-04 0.204636307899D-11 0.000000000000D+00
    0.670000000000D+02-0.325000000000D+01 0.472376819248D-08 0.106788104382D+00
   -0.763684511185D-07 0.489630631637D-02 0.112541019917D-04 0.515367963219D+04
    0.360000000000D+05 0.409781932831D-07 0.641821551907D+00 0.353902578354D-07
    0.946803038604D+00 0.152781250000D+03 0.561634686133D+00-0.808390815579D-08
    0.374658463172D-09 0.100000000000D+01 0.193400000000D+04 0.000000000000D+00
    0.200000000000D+01 0.000000000000D+00-0.107102096081D-07 0.670000000000D+02
    0.288300000000D+05 0.400000000000D+01 0.000000000000D+00 0.000000000000D+00
 6 17  1 29 10  0  0.0 0.305531080812D-03 0.500222085975D-11 0.000000000000D+00
    0.660000000000D+02-0.131687500000D+03 0.444161358246D-08-0.246795754740D+01
   -0.672973692417D-05 0.590385054238D-03 0.743009150028D-05 0.515361378479D+04
    0.360000000000D+05 0.465661287308D-07-0.392889888641D+00-0.111758708954D-07
    0.966551461297D+00 0.240781250000D+03-0.141510615381D+01-0.807355058150D-08
   -0.333942481473D-09 0.100000000000D+01 0.193400000000D+04 0.000000000000D+00
    0.200000000000D+01 0.000000000000D+00 0.419095158577D-08 0.660000000000D+02
    0.333300000000D+05 0.400000000000D+01 0.000000000000D+00 0.000000000000D+00
